IRIDIUM 144             
1 43249U 18030A   24201.61517643  .00000241  00000+0  78914-4 0  9995
2 43249  86.3961 221.9127 0002398  84.2702 275.8767 14.34217884330152
IRIDIUM 149             
1 43250U 18030B   24201.55175151  .00000095  00000+0  26762-4 0  9995
2 43250  86.3960 221.9141 0002228  85.9299 274.2152 14.34217582330167
IRIDIUM 157             
1 43251U 18030C   24201.57077969  .00000055  00000+0  12640-4 0  9992
2 43251  86.3962 221.9437 0001993  95.2356 264.9068 14.34217340330146
IRIDIUM 140             
1 43252U 18030D   24201.58980877  .00000051  00000+0  11248-4 0  9994
2 43252  86.3961 221.9503 0002619  88.1199 272.0297 14.34217579330207
IRIDIUM 145             
1 43253U 18030E   24201.57712248  .00000030  00000+0  35969-5 0  9993
2 43253  86.3962 221.9291 0002364  80.5812 279.5651 14.34217225330134
IRIDIUM 146             
1 43254U 18030F   24201.55809398 -.00000048  00000+0 -24083-4 0  9990
2 43254  86.3965 221.9518 0002224  85.7317 274.4133 14.34217063330142
IRIDIUM 148             
1 43255U 18030G   24201.59614995  .00000070  00000+0  17851-4 0  9990
2 43255  86.3962 221.9684 0002107  90.1171 270.0266 14.34217542330187
IRIDIUM 142             
1 43256U 18030H   24201.49466857  .00000096  00000+0  27127-4 0  9997
2 43256  86.3961 221.9253 0002324  83.1742 276.9718 14.34217705330139
